[{"OBJECT_NAME":"LEMUR-2-FURIAUS","OBJECT_ID":"2017-042R","EPOCH":"2026-03-09T23:04:27.745536","MEAN_MOTION":15.26272951,"ECCENTRICITY":0.00075374,"INCLINATION":97.3753,"RA_OF_ASC_NODE":248.499,"ARG_OF_PERICENTER":55.8686,"MEAN_ANOMALY":304.3266,"EPHEMERIS_TYPE":0,"CLASSIFICATION_TYPE":"U","NORAD_CAT_ID":42840,"ELEMENT_SET_NO":999,"REV_AT_EPOCH":47305,"BSTAR":0.00099966194,"MEAN_MOTION_DOT":0.00025928,"MEAN_MOTION_DDOT":0},{"OBJECT_NAME":"STARLINK-32740","OBJECT_ID":"2025-014V","EPOCH":"2026-03-09T05:49:42.043872","MEAN_MOTION":15.27588843,"ECCENTRICITY":0.00018429,"INCLINATION":43.0001,"RA_OF_ASC_NODE":156.5188,"ARG_OF_PERICENTER":269.0252,"MEAN_ANOMALY":91.0389,"EPHEMERIS_TYPE":0,"CLASSIFICATION_TYPE":"U","NORAD_CAT_ID":62754,"ELEMENT_SET_NO":999,"REV_AT_EPOCH":6319,"BSTAR":0.0014503161,"MEAN_MOTION_DOT":0.00039875,"MEAN_MOTION_DDOT":0}]
